LEMUR-2-FINNIAN         
1 66782U 25276DX  26169.14734581  .00005369  00000+0  43158-3 0  9994
2 66782  97.5288 240.1082 0008880  86.5693 273.6546 15.00388121 20147
LEMUR-2-STARLIGHT       
1 66783U 25276DY  26169.17128594  .00003939  00000+0  32865-3 0  9993
2 66783  97.5260 239.7772 0015141 125.4407 234.8232 14.99049155 30344
LEMUR-2-TARTIFLETTE     
1 66784U 25276DZ  26169.43674262  .00003785  00000+0  31579-3 0  9991
2 66784  97.5263 240.0399 0014065 130.8813 229.3631 14.99079284 30385
LEMUR-2-VUKASIN         
1 66785U 25276EA  26169.42931969  .00004317  00000+0  34813-3 0  9997
2 66785  97.5307 240.3323 0005925 121.5696 238.6107 15.00378428 30337
LEMUR-2-HOTSPUR-TOM     
1 66786U 25276EB  26169.42940211  .00004465  00000+0  37251-3 0  9991
2 66786  97.5259 240.0139 0015426 123.9912 236.2780 14.98972580 30314
LEMUR-2-MYRA            
1 66787U 25276EC  26169.46089975  .00006317  00000+0  50749-3 0  9992
2 66787  97.5213 240.3002 0016736 137.3434 222.9093 15.00261387 30409
LEMUR-2 FIKRETDENGIZ    
1 67363U 26004A   26169.54616778  .00003422  00000+0  37539-3 0  9995
2 67363  97.8017 168.0831 0010232 129.2774 230.9352 14.88333548 23484
TWILIGHT-1 OBJECT B     
1 67364U 26004B   26169.43667508  .00001463  00000+0  16646-3 0  9990
2 67364  97.8061 167.9900 0010038 120.9040 239.3165 14.87706091 23477
LEMUR-2-MARIO-SOUSA     
1 67365U 26004C   26168.99183485  .00003515  00000+0  38362-3 0  9997
2 67365  97.7987 167.5337 0009717 131.4058 228.7995 14.88518565 23417
LEMUR-2-SONNENBLUME     
1 67367U 26004E   26169.46095356  .00002211  00000+0  24477-3 0  9995
2 67367  97.7983 167.9797 0009264 131.5673 228.6339 14.88320729 23481
LEMUR-2-WOBLER          
1 67368U 26004F   26169.45426810  .00002744  00000+0  30075-3 0  9990
2 67368  97.8039 168.0966 0009675 122.1673 238.0484 14.88523287 23487
LEMUR-2-GRAM-E-SUE      
1 67370U 26004H   26169.31050627  .00001535  00000+0  17116-3 0  9995
2 67370  97.7971 167.8467 0008259 132.5729 227.6186 14.88474915 23465
LEMUR-2-KATIE           
1 67387U 26004AA  26168.96082653  .00002696  00000+0  28487-3 0  9999
2 67387  97.8034 167.9644 0004859  91.4386 268.7388 14.90052933 23427
LEMUR-2-HCS-BAZUS       
1 67388U 26004AB  26168.95987483  .00004374  00000+0  45832-3 0  9992
2 67388  97.8022 167.9443 0004436  88.8187 271.3539 14.90078149 23427
